#aV2010  9 14  0  0   .00000000      96 DD+AD WGS84 FIT  NGA
## 1601 172800.00000000   900.00000000 55453  .0000000000000
+   32     1  2  3  4  5  6  7  8  9 10 11 12 13 14 15 16 17
+         18 19 20 21 22 23 24 25 26 27 28 29 30 31 32  0  0
+          0  0  0  0  0  0  0  0  0  0  0  0  0  0  0  0  0
+          0  0  0  0  0  0  0  0  0  0  0  0  0  0  0  0  0
+          0  0  0  0  0  0  0  0  0  0  0  0  0  0  0  0  0
++         0  0  0  0  0  0  0  0  0  0  0  0  0  0  0  0  0
++         0  0  0  0  0  0  0  0  0  0  0  0  0  0  0  0  0
++         0  0  0  0  0  0  0  0  0  0  0  0  0  0  0  0  0
++         0  0  0  0  0  0  0  0  0  0  0  0  0  0  0  0  0
++         0  0  0  0  0  0  0  0  0  0  0  0  0  0  0  0  0
%c cc cc ccc ccc cccc cccc cccc cccc ccccc ccccc ccccc ccccc
%c cc cc ccc ccc cccc cccc cccc cccc ccccc ccccc ccccc ccccc
%f  0.0000000  0.000000000  0.00000000000  0.000000000000000
%f  0.0000000  0.000000000  0.00000000000  0.000000000000000
%i    0    0    0    0      0      0      0      0         0
%i    0    0    0    0      0      0      0      0         0
/*      NGA, ST. LOUIS,MO.                                  
/*   EPHEMERIS COMPUTED FROM  3 DAYS OF DATA                
/* CCCCCCCCCCCCCCCCCCCCCCCCCCCCCCCCCCCCCCCCCCCCCCCCCCCCCCCCC
/* CCCCCCCCCCCCCCCCCCCCCCCCCCCCCCCCCCCCCCCCCCCCCCCCCCCCCCCCC
*  2010  9 14 15 15   .00000000                                                 
P  1  19725.783161   -360.857174  17722.552931   -162.419224                    
V  1  17107.665552  14968.501535 -18489.909915      -.038678                    
P  2 -22130.661906  13389.336929   4809.075380    288.427218                    
V  2  -7207.681623  -1018.458040 -30775.073208       .028013                    
P  3  10167.550810 -20165.291423  13318.613259    608.303052                    
V  3   3173.382193  17801.172877  24174.863061       .050399                    
P  4 -25413.596487   5041.409049  -6834.843187    169.709995                    
V  4   6613.437083  -5961.868306 -29427.571820       .090666                    
P  5 -10273.752836  11385.275834  21679.844008    -36.650056                    
V  5 -21836.360491 -16816.496147  -1425.179823      -.052192                    
P  6  13708.525220 -15381.982256  16833.853973    494.053368                    
V  6    585.446733  21324.591048  19370.180023      -.149421                    
P  7 -14073.511354  -9364.825053  20528.247163     -1.851083                    
V  7  23780.359441 -10528.983783  11305.040840       .001189                    
P  8 -23100.076657  -1655.807522  13488.289130      6.661527                    
V  8  15710.167996  -6222.329445  25603.009918       .001152                    
P  9  -6398.096078  17238.306010 -19706.901317     30.408993                    
V  9 -22126.075549   8831.733491  15355.152297       .023063                    
P 10 -20606.351133  -1305.007925  16711.164794    -52.344691                    
V 10 -15585.439304 -14872.955265 -19804.634989      -.009570                    
P 11  -1100.503087 -18514.412785 -19190.653806    -89.509767                    
V 11  20737.540163 -12641.496434  11546.143753      -.026509                    
P 12   6044.848017  19533.313943 -16998.133837    -73.057206                    
V 12 -17859.235659 -12179.741240 -20157.487558       .037408                    
P 13  -6361.412651 -20222.294442  15836.278467    297.426830                    
V 13   5449.803101 -19615.332451 -22712.125327      -.008995                    
P 14  14689.139329    629.900440 -21958.904876     88.561861                    
V 14  -4892.046363  27764.415997  -2596.050534       .036893                    
P 15  -5245.240576  25775.910213   3170.267346   -209.275642                    
V 15  -2669.598783  -4357.562939  31314.985072       .053076                    
P 16  15445.863206  -5772.568054  20911.725913   -108.460492                    
V 16  20043.875359  17165.915821  -9811.289783      -.034289                    
P 17 -14629.522799  -4343.406894 -21641.598013    170.709683                    
V 17   4457.305273 -27363.576876   2253.822676       .014741                    
P 18  19897.405204  17828.344657   1971.415160     93.024228                    
V 18  -3704.504142   1199.705426  30812.598397       .022596                    
P 19   7056.622321 -25325.258328   2235.461967    -65.851490                    
V 19   2493.490943   3451.833713  31742.378041      -.031357                    
P 20  -6793.149853 -19821.899039 -16481.628057     51.133785                    
V 20  18162.002198  10265.882662 -19937.093473      -.003780                    
P 21  17234.039259   8306.121208  19016.975355    -88.132675                    
V 21 -21145.112502   9886.979915  14504.741657      -.026586                    
P 22  22899.107066   9625.297192  -9364.683778    163.011385                    
V 22   7380.571878  10194.659937  27911.319410      -.007172                    
P 23  -1205.855905 -25425.105633   6934.811692    353.831712                    
V 23   3992.533664  -8416.971752 -30446.572853      -.018225                    
P 24  21124.315686 -13632.854007  -8118.163577    321.578821                    
V 24  10940.956904   -508.914897  29317.367939       .032221                    
P 25  15795.065523  19452.672928  -8811.155139    -41.483115                    
V 25 -10501.483500  -4588.092681 -29038.872785      -.011032                    
P 26 -11540.704650  20734.530923  10913.477015    -10.813646                    
V 26    898.137821 -14953.024105  28339.025620      -.070191                    
P 27 -12287.236500  17186.341065 -15290.596205    188.926961                    
V 27 -19524.804270   7132.666192  22912.574794       .034659                    
P 28 -22391.921336 -12736.690035  -6567.555190     -3.595814                    
V 28  -5428.161497  -7402.440234  30331.533944       .015497                    
P 29   6901.509720  21082.807146  14718.354508    149.304217                    
V 29  -5051.648220  17943.228638 -23423.649302       .027179                    
P 30  16707.432056  19025.676728  -8486.346697    278.309298                    
V 30  -9852.081714  -3741.037858 -29162.098604       .033621                    
P 31  25258.089537  -7499.599528  -3839.277044     -9.293446                    
V 31  -3924.088625   3880.144320 -31525.165981       .031060                    
P 32   -128.144895 -18299.163336 -19044.730136    -85.183345                    
V 32  19124.922552  15811.630352 -14705.443790      -.089555                    
EOF
